SL-8 R/B                
1 19257U 88053B   26078.31077974  .00000279  00000+0  98855-4 0  9995
2 19257  74.0450  94.7303 0021544 272.7718  98.3894 14.38922046977982
COSMOS 1975             
1 19573U 88093A   26078.15411647  .00005633  00000+0  20338-3 0  9990
2 19573  82.5163 108.1817 0012937 132.2930 227.9408 15.28193761 20850
SL-14 R/B               
1 19574U 88093B   26078.31058757  .00000523  00000+0  57362-4 0  9999
2 19574  82.5325  33.0127 0020974  10.7832 141.4385 14.85668028  2446
SL-16 R/B               
1 19650U 88102B   26078.29935403 -.00000070  00000+0 -11175-4 0  9995
2 19650  70.9990 131.2783 0014645 346.5940  13.4792 14.16156029928250
INTERCOSMOS 24          
1 20261U 89080A   26078.09590093  .00000534  00000+0  15881-3 0  9991
2 20261  82.6016  98.2774 1186673 270.9650  75.6003 12.59571281667982
SL-14 R/B               
1 20262U 89080C   26078.31820903  .00000427  00000+0  12157-3 0  9997
2 20262  82.5966 167.0076 1230792 162.7502 201.9630 12.50504120661356
DELTA 1 R/B             
1 20323U 89089B   26078.27743565  .00000332  00000+0  90518-4 0  9990
2 20323  97.0698 284.1907 0070721  92.2696 268.6602 14.50671098897121
ARIANE 40 R/B           
1 20443U 90005H   26078.19481052  .00000226  00000+0  85261-4 0  9995
2 20443  98.3063 138.5722 0010450 169.7193 190.4211 14.39876517894176
DELTA 2 R/B(1)          
1 20453U 90008B   26077.80286398  .00048118  00000+0  54577-3 0  9999
2 20453  35.6024 114.9908 0082023 343.0931  16.7077 15.57130229927557
COSMOS 2058             
1 20465U 90010A   26078.31437889  .00003307  00000+0  19411-3 0  9994
2 20465  82.4674  37.9431 0008054 310.4368  49.6159 15.11402491943692
SL-14 R/B               
1 20466U 90010B   26077.92705625  .00000408  00000+0  46570-4 0  9993
2 20466  82.4987 258.7090 0018319 269.4952  90.4163 14.83577050929854
SL-14 R/B               
1 20511U 90018B   26078.08878930  .00000430  00000+0  50877-4 0  9990
2 20511  82.5220 214.3051 0017485  63.5565 296.7441 14.82154673923975
HST                     
1 20580U 90037B   26078.01202943  .00006585  00000+0  21509-3 0  9991
2 20580  28.4725 336.3997 0001574 225.3944 134.6524 15.29626908774743
SL-16 R/B               
1 20625U 90046B   26078.24059500  .00000058  00000+0  54573-4 0  9992
2 20625  70.9954 277.8541 0016203 286.9545  72.9801 14.15011944849745
COSMOS 2084             
1 20663U 90055A   26077.95339869  .00001849  00000+0  14093-3 0  9991
2 20663  62.7902 303.9824 0015623 192.5621 167.5092 15.05700267937717
SL-6 R/B(2)             
1 20666U 90055D   26077.68271721  .00001898  00000+0  15166-3 0  9992
2 20666  62.7825 223.2661 0026258 349.1881  10.8651 15.03638482939542
SL-8 R/B                
1 20775U 90078B   26077.98201659  .00009451  00000+0  27880-3 0  9993
2 20775  82.9001 242.9501 0360289 342.7169  16.2031 14.89351773810680
